const data = [
"1 21576U 91050C   22076.72103705  .00000172  00000+0  66186-4 0  9998",
"2 21576  98.4916 142.9182 0004338 149.9662 210.1777 14.41720803610947",
"1 23545U 95017A   22077.20373898  .00001450  00000+0  24044-3 0  9995",
"2 23545  69.9677 100.4571 0008704 287.3416  72.6777 14.72330697437409",
"1 23546U 95017B   22077.18994679  .00001543  00000+0  26104-3 0  9991",
"2 23546  69.9700 117.5782 0010673 280.9716  79.0228 14.71303462437052",
"1 25112U 97084A   22076.92169082  .00000561  00000+0  22366-3 0  9996",
"2 25112  45.0151 271.4549 0008490  27.4019 332.7276 14.39498835270187",
"1 25113U 97084B   22076.90775300  .00000547  00000+0  21927-3 0  9997",
"2 25113  45.0168 273.0648 0005823   2.5070 357.5807 14.39494950445163",
"1 25114U 97084C   22076.87084848  .00000462  00000+0  19249-3 0  9994",
"2 25114  45.0153 272.7917 0006586   1.9124 358.1749 14.39417475270135",
"1 25115U 97084D   22076.97221462  .00000528  00000+0  21361-3 0  9992",
"2 25115  45.0161 271.9839 0005523   5.5874 354.5036 14.39435856270188",
"1 25116U 97084E   22076.90290274  .00000542  00000+0  21806-3 0  9993",
"2 25116  45.0166 272.8560 0006408 347.7121  12.3570 14.39430291270140",
"1 25117U 97084F   22076.93681046  .00000306  00000+0  14235-3 0  9994",
"2 25117  45.0166 272.7892 0003695  26.5880 333.5158 14.39627420270172",
"1 25118U 97084G   22076.94396061  .00000546  00000+0  21911-3 0  9991",
"2 25118  45.0159 272.4042 0002813  38.0832 115.2345 14.39473749270159",
"1 25119U 97084H   22076.81451146  .00000613  00000+0  24044-3 0  9999",
"2 25119  45.0153 273.3523 0003939  12.2712 347.8232 14.39463462270136",
"1 25158U 98007B   22076.88605610  .00000589  00000+0  27569-3 0  9999",
"2 25158 107.9902 226.0820 0048860 156.7255 203.6108 14.29906987254116",
"1 25159U 98007C   22076.39825435  .00000691  00000+0  31369-3 0  9992",
"2 25159 107.9887 227.4552 0044266 156.3678 203.9505 14.30188841254192",
"1 25413U 98046A   22077.18919972  .00000372  00000+0  19193-3 0  9993",
"2 25413  44.9956  78.0915 0001589 319.9660  40.1068 14.31225299233118",
"1 25414U 98046B   22077.16482990  .00000621  00000+0  27400-3 0  9994",
"2 25414  44.9967  19.6565 0002457  63.2711 296.8386 14.33367481233872",
"1 25415U 98046C   22076.87251060  .00000487  00000+0  22587-3 0  9995",
"2 25415  44.9973  21.7756 0002073  30.3368   4.8150 14.33313957233632",
"1 25416U 98046D   22076.88635968  .00000408  00000+0  19748-3 0  9998",
"2 25416  44.9970  22.0603 0002353 314.7898  45.2757 14.33271199233748",
"1 25417U 98046E   22077.22464828  .00000534  00000+0  24161-3 0  9998",
"2 25417  44.9971  19.6389 0001567  84.0261 276.0764 14.33583603233906",
"1 25418U 98046F   22077.22652667  .00000492  00000+0  22743-3 0  9996",
"2 25418  45.0001  22.1532 0000980  90.7233  54.2776 14.33389158233888",
"1 25419U 98046G   22077.22515507  .00000597  00000+0  26496-3 0  9993",
"2 25419  44.9996  21.8118 0001176   7.1273 133.4425 14.33416996233882",
"1 25420U 98046H   22076.31049574  .00000476  00000+0  22261-3 0  9992",
"2 25420  45.0003  28.3303 0002563  70.0568 290.0554 14.33190942232624",
"1 25475U 98053A   22076.55186398  .00000381  00000+0  18789-3 0  9997",
"2 25475  45.0090 110.9485 0002052 250.5289 109.5336 14.33252718226677",
"1 25476U 98053B   22076.55628592  .00000509  00000+0  23342-3 0  9998",
"2 25476  45.0086 110.0640 0001090 305.3118  54.7626 14.33404697226643",
"1 25477U 98053C   22076.55519285  .00000446  00000+0  21186-3 0  9991",
"2 25477  45.0090 113.0809 0001228 271.0065  89.0641 14.33136535226823",
"1 25478U 98053D   22077.22534564  .00000420  00000+0  20207-3 0  9999",
"2 25478  45.0090 110.1070 0001569 253.4552 106.6123 14.33288511227212",
"1 25479U 98053E   22076.91162901  .00000452  00000+0  21353-3 0  9995",
"2 25479  45.0082 109.8713 0001159  96.7774 263.3204 14.33302272227180",
"1 25480U 98053F   22076.58213832  .00000404  00000+0  19711-3 0  9992",
"2 25480  45.0076 103.4204 0003686 116.9875 243.1348 14.33064169227101",
"1 25481U 98053G   22077.15649663  .00000404  00000+0  19623-3 0  9994",
"2 25481  45.0065 108.8491 0003064 244.1419 115.9112 14.33259697227191",
"1 25482U 98053H   22076.88671336  .00000383  00000+0  18640-3 0  9990",
"2 25482  45.0083  51.8758 0001475 154.1866 205.9054 14.33889429227743",
"1 25980U 99065A   22076.89174437  .00000357  00000+0  17970-3 0  9994",
"2 25980  45.0328 286.6613 0005203 202.2691 157.7930 14.33189974163935",
"1 25981U 99065B   22076.87173262  .00000370  00000+0  18408-3 0  9990",
"2 25981  45.0239 281.1655 0002354 229.2036 130.8606 14.33225269163489",
"1 25982U 99065C   22076.71190517  .00000343  00000+0  17727-3 0  9999",
"2 25982  45.0177 290.0380 0005062 236.5749 123.4613 14.32312392164172",
"1 25983U 99065D   22076.70943465  .00000490  00000+0  21782-3 0  9996",
"2 25983  45.0295 219.1150 0009273 224.8567 219.1007 14.35455629165239",
"1 25984U 99065E   22077.00959658  .00000328  00000+0  16906-3 0  9994",
"2 25984  45.0379 289.5562 0003457 107.2963 252.8262 14.33250248164473",
"1 25985U 99065F   22077.08647469  .00000323  00000+0  16717-3 0  9992",
"2 25985  45.0410 290.6217 0002279 249.0371 111.0232 14.33226871164501",
"1 25986U 99065G   22076.88135566  .00000336  00000+0  17235-3 0  9990",
"2 25986  45.0404 291.7579 0002728 167.8124 192.2789 14.33140281164395",
"1 33060U 08031A   22077.26519520  .00000605  00000+0  12169-3 0  9994",
"2 33060  48.4426 171.3987 0006046   0.3919 359.6997 14.74021667739315",
"1 33061U 08031B   22076.74932063  .00000654  00000+0  12945-3 0  9994",
"2 33061  48.4463 178.9685 0005329 345.3138 146.2152 14.73857796738763",
"1 33062U 08031C   22076.72628250  .00000650  00000+0  12941-3 0  9995",
"2 33062  48.4415 186.6205 0007258 345.1579 130.9657 14.73669146738686",
"1 33063U 08031D   22076.86947801  .00000577  00000+0  11987-3 0  9994",
"2 33063  48.4424 201.8802 0008395 326.7461  33.2923 14.73032953738465",
"1 33064U 08031E   22077.24220784  .00000525  00000+0  11124-3 0  9998",
"2 33064  48.4418 190.7380 0006546 343.6540  97.8461 14.73272058739060",
"1 33065U 08031F   22076.84509743  .00000661  00000+0  13044-3 0  9993",
"2 33065  48.4444 187.0129 0008063 347.6856 166.4661 14.73878869738651",
"1 40086U 14040A   22076.83344666  .00000229  00000+0  90806-4 0  9993",
"2 40086  47.0035 206.7555 0002840 252.3566 107.7008 14.54987306408138",
"1 40087U 14040B   22076.71825735  .00000251  00000+0  96041-4 0  9994",
"2 40087  47.0054 208.0047 0002846 261.0873  98.9689 14.54988332408063",
"1 40088U 14040C   22076.46411543  .00000378  00000+0  10430-3 0  9992",
"2 40088  47.0613 117.6980 0019518 328.2907  31.6805 14.64656764409140",
"1 40089U 14040D   22077.22119781  .00000722  00000+0  12714-3 0  9997",
"2 40089  47.0062 101.2715 0036471 312.5297  47.2518 14.77679261414296",
"1 40090U 14040E   22076.75103829  .00000224  00000+0  92453-4 0  9998",
"2 40090  47.0050 228.4419 0018132 194.2961 165.7412 14.53601801407723",
"1 40091U 14040F   22076.87919918  .00000231  00000+0  91316-4 0  9991",
"2 40091  47.0058 207.5687 0002850 245.8821 114.1765 14.54989006391059",
"1 41179U 15081A   22076.44236121  .00000321  00000+0  11197-3 0  9994",
"2 41179  47.0025 119.2284 0003290 291.9779  68.0756 14.55011230331356",
"1 41180U 15081B   22077.22541691  .00000254  00000+0  96693-4 0  9994",
"2 41180  47.0028  24.7474 0001871 358.4632   1.6246 14.54995943332722",
"1 41181U 15081C   22076.89737104  .00000065  00000+0  64980-4 0  9997",
"2 41181  47.0017 284.0252 0001600  36.6807 323.4181 14.43518013329136",
"1 41182U 15081D   22077.17521256  .00000267  00000+0  99482-4 0  9998",
"2 41182  47.0012 115.2794 0001121 197.9916 162.0929 14.55000628331511",
"1 41183U 15081E   22077.22104079  .00000229  00000+0  90788-4 0  9993",
"2 41183  47.0033 115.2209 0001238 197.1574 162.9268 14.55029987331533",
"1 41184U 15081F   22076.85998176  .00000307  00000+0  10879-3 0  9990",
"2 41184  47.0006  25.8221 0002384 342.9893  17.0911 14.54994163332612",
"1 41185U 15081G   22076.28753946  .00000318  00000+0  11127-3 0  9991",
"2 41185  47.0028  28.6340 0001932 353.3803   6.7055 14.54984679332519",
"1 41186U 15081H   22077.02707824  .00000197  00000+0  77971-4 0  9994",
"2 41186  46.9986 265.6417 0000589  33.4994 326.5929 14.58842986334268",
"1 41187U 15081J   22076.86300520  .00000261  00000+0  98314-4 0  9994",
"2 41187  47.0052 296.9187 0002192 273.5169  86.5465 14.54994309333742",
"1 41188U 15081K   22077.03477489  .00000171  00000+0  77642-4 0  9995",
"2 41188  47.0009 295.2729 0002979 289.1989  70.8573 14.54996348333870",
"1 41189U 15081L   22076.95135490  .00000311  00000+0  10968-3 0  9992",
"2 41189  47.0032  25.3723 0002348 348.4747  11.6083 14.54994552332697",
];

export default data;
